DUBAISAT-1              
1 35682U 09041B   26192.84737047  .00000444  00000+0  73279-4 0  9991
2 35682  98.0079 325.8393 0010183 359.6236   0.4964 14.75163641908737
OCEANSAT-2              
1 35931U 09051A   26193.57710319 -.00000133  00000+0 -65583-4 0  9999
2 35931  98.2319 177.8937 0017174 161.0519 199.1290 13.99656365882888
WORLDVIEW-2 (WV-2)      
1 35946U 09055A   26193.56264846  .00000031  00000+0  24832-4 0  9994
2 35946  98.4757 266.6667 0005206 136.2083 223.9518 14.37906481879292
SMOS                    
1 36036U 09059A   26193.48600663  .00000150  00000+0  61644-4 0  9995
2 36036  98.4426  20.4501 0001131  95.7064 264.4253 14.39735065877092
YAOGAN-7                
1 36110U 09069A   26193.54354878  .00000210  00000+0  36353-4 0  9996
2 36110  98.0038  79.2503 0023668 320.2821  39.6655 14.78033948893371
TANDEM-X                
1 36605U 10030A   26188.47915494  .00000386  00000+0  21566-4 0  9992
2 36605  97.4457 195.8973 0001887  94.3019 265.8431 15.19154052889726
CARTOSAT-2B             
1 36795U 10035A   26193.64857697  .00000952  00000+0  13707-3 0  9998
2 36795  97.9947 244.0335 0012575 106.4772 253.7822 14.78617733863615
YAOGAN-10               
1 36834U 10038A   26193.62945422  .00000609  00000+0  76898-4 0  9997
2 36834  97.8974 216.8305 0001592  81.7483  69.6603 14.85422612860989
COSMO-SKYMED 4          
1 37216U 10060A   26193.62516633  .00000252  00000+0  38255-4 0  9994
2 37216  97.8893  16.8574 0001522  84.8372 275.3015 14.82148450848334
RESOURCESAT-2           
1 37387U 11015A   26193.56759486  .00000018  00000+0  28316-4 0  9999
2 37387  98.7633 260.8326 0011444 178.4679 181.6535 14.21605476789783
HAIYANG-2A              
1 37781U 11043A   26193.59833464  .00000049  00000+0  99083-4 0  9993
2 37781  99.3400 195.6943 0002873  37.2845 322.8503 13.73481495750144
RASAT                   
1 37791U 11044D   26193.54228142  .00000281  00000+0  57201-4 0  9995
2 37791  98.0580 284.5526 0021852 110.5686  14.8493 14.68191393796901
SRMSAT                  
1 37841U 11058D   26193.23869166  .00000350  00000+0  45879-4 0  9994
2 37841  19.9714 267.8421 0011854 118.8974 271.3920 14.11580711761369
PLEIADES 1A             
1 38012U 11076F   26193.66477406  .00000297  00000+0  73783-4 0  9999
2 38012  98.1974 268.4244 0001721  81.5350  80.5387 14.58546638775704
ZIYUAN 1-02C (ZY 1-02C) 
1 38038U 11079A   26193.62665022  .00000425  00000+0  15402-3 0  9995
2 38038  98.4067 260.4025 0005453 223.3989 295.5064 14.38235084762868
ARIRANG-3 (KOMPSAT-3)   
1 38338U 12025B   26193.62554998  .00000203  00000+0  49613-4 0  9995
2 38338  98.1183 150.6487 0006368  45.6420 314.5302 14.62227742755060
EXACTVIEW-1 (ADS-1B)    
1 38709U 12039C   26192.81623572  .00000040  00000+0  36711-4 0  9991
2 38709  98.9800 310.7657 0011949 100.3654 259.8872 14.24991670726217
SPOT 6                  
1 38755U 12047A   26193.64927365  .00000414  00000+0  98958-4 0  9996
2 38755  98.2114 260.6586 0001135  81.5986 278.5342 14.58539033736766
PLEIADES 1B             
1 39019U 12068A   26193.59925829  .00000443  00000+0  10514-3 0  9993
2 39019  98.1944 268.3002 0001631  79.3343 280.8040 14.58534677724555
GOKTURK 2               
1 39030U 12073A   26193.57827560  .00000330  00000+0  55400-4 0  9992
2 39030  97.6815  29.7365 0000891  86.7579 273.3733 14.75566896728254
LANDSAT 8               
1 39084U 13008A   26193.56994969  .00000147  00000+0  42644-4 0  9999
2 39084  98.2291 263.4024 0001329  94.3135 265.8216 14.57110757701598
SARAL                   
1 39086U 13009A   26193.59865677  .00000044  00000+0  32201-4 0  9992
2 39086  98.5554  19.8445 0001546 173.4942 186.6262 14.32895375699249
GAOFEN-1                
1 39150U 13018A   26193.61143046  .00000155  00000+0  29466-4 0  9998
2 39150  97.9091 265.1615 0016838 179.3994 180.7239 14.76516428711990
VNREDSAT 1              
1 39160U 13021B   26193.63563404  .00000264  00000+0  57929-4 0  9995
2 39160  97.9073 246.0736 0001636  80.4048 279.7341 14.64882116704010
ARIRANG-5 (KOMPSAT-5)   
1 39227U 13042A   26193.57220218  .00000587  00000+0  46211-4 0  9998
2 39227  97.6214  19.9166 0005581  65.8574 294.3235 15.04522706707677
SKYSAT-A                
1 39418U 13066C   26193.58666402  .00001286  00000+0  75946-4 0  9990
2 39418  97.3804 242.1744 0020229 222.7715 137.1943 15.13107138692323
DUBAISAT-2              
1 39419U 13066D   26193.57895181  .00002174  00000+0  13621-3 0  9996
2 39419  97.4572 183.0615 0009704 312.9311  47.1104 15.10363497690221
GPM-CORE                
1 39574U 14009C   26193.52168421  .00003486  00000+0  78827-4 0  9998
2 39574  64.9695 223.2470 0010998 261.2256  98.7639 15.45023483701724
SENTINEL-1A             
1 39634U 14016A   26193.60176060  .00000106  00000+0  32237-4 0  9991
2 39634  98.1783 200.7634 0001450  84.8395 275.2970 14.59200429653723
KAZEOSAT 1              
1 39731U 14024A   26193.62485056  .00000224  00000+0  81092-4 0  9992
2 39731  98.3202 265.4380 0001254  81.8543 278.2789 14.42037217642228
