OBJECT_NAME,OBJECT_ID,EPOCH,MEAN_MOTION,ECCENTRICITY,INCLINATION,RA_OF_ASC_NODE,ARG_OF_PERICENTER,MEAN_ANOMALY,EPHEMERIS_TYPE,CLASSIFICATION_TYPE,NORAD_CAT_ID,ELEMENT_SET_NO,REV_AT_EPOCH,BSTAR,MEAN_MOTION_DOT,MEAN_MOTION_DDOT
DUBAISAT-1,2009-041B,2026-07-11T20:20:12.808608,14.75163641,.00101832,98.0079,325.8393,359.6236,0.4964,0,U,35682,999,90873,.73279038E-4,.444E-5,0
OCEANSAT-2,2009-051A,2026-07-12T13:51:01.715616,13.99656365,.00171742,98.2319,177.8937,161.0519,199.1290,0,U,35931,999,88288,-.65582833E-4,-.133E-5,0
WORLDVIEW-2 (WV-2),2009-055A,2026-07-12T13:30:12.826944,14.37906481,.00052067,98.4757,266.6667,136.2083,223.9518,0,U,35946,999,87929,.24832418E-4,.31E-6,0
SMOS,2009-059A,2026-07-12T11:39:50.972832,14.39735065,.00011315,98.4426,20.4501,95.7064,264.4253,0,U,36036,999,87709,.61644337E-4,.15E-5,0
YAOGAN-7,2009-069A,2026-07-12T13:02:42.614592,14.78033948,.00236681,98.0038,79.2503,320.2821,39.6655,0,U,36110,999,89337,.36353485E-4,.21E-5,0
TANDEM-X,2010-030A,2026-07-07T11:29:58.986816,15.19154052,.0001887,97.4457,195.8973,94.3019,265.8431,0,U,36605,999,88972,.21566E-4,.386E-5,0
CARTOSAT-2B,2010-035A,2026-07-12T15:33:57.050208,14.78617733,.00125754,97.9947,244.0335,106.4772,253.7822,0,U,36795,999,86361,.13707203E-3,.952E-5,0
YAOGAN-10,2010-038A,2026-07-12T15:06:24.844608,14.85422612,.00015923,97.8974,216.8305,81.7483,69.6603,0,U,36834,999,86098,.76897745E-4,.609E-5,0
COSMO-SKYMED 4,2010-060A,2026-07-12T15:00:14.370912,14.82148450,.0001522,97.8893,16.8574,84.8372,275.3015,0,U,37216,999,84833,.38254625E-4,.252E-5,0
RESOURCESAT-2,2011-015A,2026-07-12T13:37:20.195904,14.21605476,.00114449,98.7633,260.8326,178.4679,181.6535,0,U,37387,999,78978,.28315984E-4,.18E-6,0
HAIYANG-2A,2011-043A,2026-07-12T14:21:36.112896,13.73481495,.00028739,99.3400,195.6943,37.2845,322.8503,0,U,37781,999,75014,.99082988E-4,.49E-6,0
RASAT,2011-044D,2026-07-12T13:00:53.114688,14.68191393,.00218526,98.0580,284.5526,110.5686,14.8493,0,U,37791,999,79690,.57200787E-4,.281E-5,0
SRMSAT,2011-058D,2026-07-12T05:43:42.959424,14.11580711,.0011854,19.9714,267.8421,118.8974,271.3920,0,U,37841,999,76136,.45879E-4,.35E-5,0
PLEIADES 1A,2011-076F,2026-07-12T15:57:16.478784,14.58546638,.00017217,98.1974,268.4244,81.5350,80.5387,0,U,38012,999,77570,.73783449E-4,.297E-5,0
ZIYUAN 1-02C (ZY 1-02C),2011-079A,2026-07-12T15:02:22.579008,14.38235084,.00054532,98.4067,260.4025,223.3989,295.5064,0,U,38038,999,76286,.15402396E-3,.425E-5,0
ARIRANG-3 (KOMPSAT-3),2012-025B,2026-07-12T15:00:47.518272,14.62227742,.00063689,98.1183,150.6487,45.6420,314.5302,0,U,38338,999,75506,.49613023E-4,.203E-5,0
EXACTVIEW-1 (ADS-1B),2012-039C,2026-07-11T19:35:22.766208,14.24991670,.00119494,98.9800,310.7657,100.3654,259.8872,0,U,38709,999,72621,.36710963E-4,.4E-6,0
SPOT 6,2012-047A,2026-07-12T15:34:57.243360,14.58539033,.00011352,98.2114,260.6586,81.5986,278.5342,0,U,38755,999,73676,.98958464E-4,.414E-5,0
PLEIADES 1B,2012-068A,2026-07-12T14:22:55.916256,14.58534677,.00016317,98.1944,268.3002,79.3343,280.8040,0,U,39019,999,72455,.10513681E-3,.443E-5,0
GOKTURK 2,2012-073A,2026-07-12T13:52:43.011840,14.75566896,.00008917,97.6815,29.7365,86.7579,273.3733,0,U,39030,999,72825,.55400271E-4,.33E-5,0
LANDSAT 8,2013-008A,2026-07-12T13:40:43.653216,14.57110757,.0001329,98.2291,263.4024,94.3135,265.8216,0,U,39084,999,70159,.4264389E-4,.147E-5,0
SARAL,2013-009A,2026-07-12T14:22:03.944928,14.32895375,.0001546,98.5554,19.8445,173.4942,186.6262,0,U,39086,999,69924,.32200596E-4,.44E-6,0
GAOFEN-1,2013-018A,2026-07-12T14:40:27.591744,14.76516428,.00168388,97.9091,265.1615,179.3994,180.7239,0,U,39150,999,71199,.29465718E-4,.155E-5,0
VNREDSAT 1,2013-021B,2026-07-12T15:15:18.781056,14.64882116,.00016364,97.9073,246.0736,80.4048,279.7341,0,U,39160,999,70401,.57928565E-4,.264E-5,0
ARIRANG-5 (KOMPSAT-5),2013-042A,2026-07-12T13:43:58.268352,15.04522706,.00055813,97.6214,19.9166,65.8574,294.3235,0,U,39227,999,70767,.4621118E-4,.587E-5,0
SKYSAT-A,2013-066C,2026-07-12T14:04:47.771328,15.13107138,.00202291,97.3804,242.1744,222.7715,137.1943,0,U,39418,999,69232,.75945524E-4,.1286E-4,0
DUBAISAT-2,2013-066D,2026-07-12T13:53:41.436384,15.10363497,.00097049,97.4572,183.0615,312.9311,47.1104,0,U,39419,999,69022,.13620955E-3,.2174E-4,0
GPM-CORE,2014-009C,2026-07-12T12:31:13.515744,15.45023483,.00109989,64.9695,223.2470,261.2256,98.7639,0,U,39574,999,70172,.78826718E-4,.3486E-4,0
SENTINEL-1A,2014-016A,2026-07-12T14:26:32.115840,14.59200429,.000145,98.1783,200.7634,84.8395,275.2970,0,U,39634,999,65372,.32236523E-4,.106E-5,0
KAZEOSAT 1,2014-024A,2026-07-12T14:59:47.088384,14.42037217,.00012549,98.3202,265.4380,81.8543,278.2789,0,U,39731,999,64222,.81091737E-4,.224E-5,0
